NORAD_CAT_ID,OBJECT_NAME,OBJECT_TYPE,EPOCH,MEAN_MOTION,ECCENTRICITY,INCLINATION,RA_OF_ASC_NODE,ARG_OF_PERICENTER,MEAN_ANOMALY,BSTAR,MEAN_MOTION_DOT,MEAN_MOTION_DDOT,TLE_LINE0,TLE_LINE1,TLE_LINE2,SEMIMAJOR_AXIS,PERIOD,APOGEE,PERIGEE,DECAYED
51865.0,STARLINK-3503,PAYLOAD,2023-09-10 02:28:34,15.08846019,0.0001371,53.2168,141.3935,99.2493,260.8654,8.2315e-05,1.023e-05,0.0,0 STARLINK-3503,1 51865U 22022P   23253.10317472  .00001023  00000-0  82315-4 0  9992,2 51865  53.2168 141.3935 0001371  99.2493 260.8654 15.08846019 85495,6917.862,95.437,540.675,538.779,0.0
51865.0,STARLINK-3503,PAYLOAD,2023-09-11 02:19:22,15.08835909,0.0001462,53.2164,136.9325,92.8468,267.2691,-4.3828e-06,-3.58e-06,0.0,0 STARLINK-3503,1 51865U 22022P   23254.09678649 -.00000358  00000-0 -43828-5 0  9996,2 51865  53.2164 136.9325 0001462  92.8468 267.2691 15.08835909 85641,6917.893,95.438,540.769,538.746,0.0
51865.0,STARLINK-3503,PAYLOAD,2023-09-12 00:34:45,15.0884535,0.0001369,53.2162,132.7693,98.3121,261.8026,0.00010007,1.305e-05,0.0,0 STARLINK-3503,1 51865U 22022P   23255.02414023  .00001305  00000-0  10007-3 0  9996,2 51865  53.2162 132.7693 0001369  98.3121 261.8026 15.08845350 85782,6917.864,95.437,540.676,538.782,0.0
51865.0,STARLINK-3503,PAYLOAD,2023-09-12 21:14:46,15.08839262,0.0001374,53.2175,128.9073,99.014,261.1008,0.00013034,1.787e-05,0.0,0 STARLINK-3503,1 51865U 22022P   23255.88526609  .00001787  00000-0  13034-3 0  9991,2 51865  53.2175 128.9073 0001374  99.0140 261.1008 15.08839262 85913,6917.883,95.438,540.698,538.797,0.0
51865.0,STARLINK-3503,PAYLOAD,2023-09-12 22:50:10,15.0883989,0.0001366,53.2175,128.61,99.2233,260.8914,0.00013313,1.831e-05,0.0,0 STARLINK-3503,1 51865U 22022P   23255.95150566  .00001831  00000-0  13313-3 0  9994,2 51865  53.2175 128.6100 0001366  99.2233 260.8914 15.08839890 85927,6917.881,95.438,540.691,538.801,0.0
51865.0,STARLINK-3503,PAYLOAD,2023-09-13 02:00:55,15.0884971,0.0001299,53.2174,128.0116,86.6481,273.466,0.00020015,2.9e-05,0.0,0 STARLINK-3503,1 51865U 22022P   23256.08397816  .00002900  00000-0  20015-3 0  9995,2 51865  53.2174 128.0116 0001299  86.6481 273.4660 15.08849710 85949,6917.851,95.437,540.614,538.817,0.0
51865.0,STARLINK-3503,PAYLOAD,2023-09-13 21:05:33,15.08838782,0.0001526,53.2179,124.4439,97.9887,262.1278,0.00024347,3.589e-05,0.0,0 STARLINK-3503,1 51865U 22022P   23256.87886043  .00003589  00000-0  24347-3 0  9993,2 51865  53.2179 124.4439 0001526  97.9887 262.1278 15.08838782 86061,6917.884,95.438,540.805,538.693,0.0
51865.0,STARLINK-3503,PAYLOAD,2023-09-14 00:16:18,15.08858137,0.0001354,53.2177,123.8499,91.5844,268.5304,0.0001466,2.047e-05,0.0,0 STARLINK-3503,1 51865U 22022P   23257.01133065  .00002047  00000-0  14660-3 0  9994,2 51865  53.2177 123.8499 0001354  91.5844 268.5304 15.08858137 86088,6917.825,95.436,540.627,538.753,0.0
51865.0,STARLINK-3503,PAYLOAD,2023-09-14 20:56:21,15.0883392,0.0001442,53.2179,119.9827,85.792,274.3237,-9.4215e-05,-1.787e-05,0.0,0 STARLINK-3503,1 51865U 22022P   23257.87247510 -.00001787  00000-0 -94215-4 0  9996,2 51865  53.2179 119.9827 0001442  85.7920 274.3237 15.08833920 86217,6917.899,95.438,540.762,538.766,0.0
51865.0,STARLINK-3503,PAYLOAD,2023-09-15 00:07:08,15.08834609,0.0001396,53.2176,119.3876,84.1749,275.9402,-9.1898e-05,-1.75e-05,0.0,0 STARLINK-3503,1 51865U 22022P   23258.00495473 -.00001750  00000-0 -91898-4 0  9999,2 51865  53.2176 119.3876 0001396  84.1749 275.9402 15.08834609 86230,6917.897,95.438,540.728,538.796,0.0
51865.0,STARLINK-3503,PAYLOAD,2023-09-15 23:57:53,15.08855898,0.0001326,53.2173,114.9255,87.9654,272.149,6.7872e-05,7.93e-06,0.0,0 STARLINK-3503,1 51865U 22022P   23258.99853623  .00000793  00000-0  67872-4 0  9991,2 51865  53.2173 114.9255 0001326  87.9654 272.1490 15.08855898 86383,6917.832,95.437,540.614,538.779,0.0
51865.0,STARLINK-3503,PAYLOAD,2023-09-16 14:16:23,15.08833898,0.0001099,53.2171,112.251,76.0121,284.0993,0.00012632,1.723e-05,0.0,0 STARLINK-3503,1 51865U 22022P   23259.59471141  .00001723  00000-0  12632-3 0  9996,2 51865  53.2171 112.2510 0001099  76.0121 284.0993 15.08833898 86477,6917.899,95.438,540.524,539.004,0.0
51865.0,STARLINK-3503,PAYLOAD,2023-09-16 23:48:41,15.08842724,0.0001346,53.217,110.4666,86.1979,273.9167,0.0002013,2.917e-05,0.0,0 STARLINK-3503,1 51865U 22022P   23259.99214656  .00002917  00000-0  20130-3 0  9994,2 51865  53.2170 110.4666 0001346  86.1979 273.9167 15.08842724 86531,6917.872,95.437,540.668,538.806,0.0
51865.0,STARLINK-3503,PAYLOAD,2023-09-17 23:39:28,15.08848866,0.0001313,53.2157,106.0053,87.3462,272.768,6.5598e-05,7.56e-06,0.0,0 STARLINK-3503,1 51865U 22022P   23260.98574423  .00000756  00000-0  65598-4 0  9993,2 51865  53.2157 106.0053 0001313  87.3462 272.7680 15.08848866 86687,6917.853,95.437,540.627,538.81,0.0
51865.0,STARLINK-3503,PAYLOAD,2023-09-18 17:08:43,15.08840226,0.0001322,53.2157,102.7336,91.6991,268.4152,4.1352e-05,3.7e-06,0.0,0 STARLINK-3503,1 51865U 22022P   23261.71438806  .00000370  00000-0  41352-4 0  9993,2 51865  53.2157 102.7336 0001322  91.6991 268.4152 15.08840226 86799,6917.88,95.438,540.659,538.83,0.0
51865.0,STARLINK-3503,PAYLOAD,2023-09-18 20:19:29,15.08844705,0.0001231,53.2171,102.1389,90.6258,269.4875,5.7903e-05,6.34e-06,0.0,0 STARLINK-3503,1 51865U 22022P   23261.84686646  .00000634  00000-0  57903-4 0  9996,2 51865  53.2171 102.1389 0001231  90.6258 269.4875 15.08844705 86813,6917.866,95.437,540.583,538.879,0.0
51865.0,STARLINK-3503,PAYLOAD,2023-09-19 18:34:52,15.08845161,0.0001252,53.2165,97.9782,95.2405,264.873,0.00010978,1.46e-05,0.0,0 STARLINK-3503,1 51865U 22022P   23262.77422423  .00001460  00000-0  10978-3 0  9998,2 51865  53.2165  97.9782 0001252  95.2405 264.8730 15.08845161 86953,6917.865,95.437,540.596,538.863,0.0
51865.0,STARLINK-3503,PAYLOAD,2023-09-19 23:21:02,15.08845573,0.0001208,53.2162,97.0828,84.188,275.925,0.00020112,2.915e-05,0.0,0 STARLINK-3503,1 51865U 22022P   23262.97294348  .00002915  00000-0  20112-3 0  9990,2 51865  53.2162  97.0828 0001208  84.1880 275.9250 15.08845573 86987,6917.863,95.437,540.564,538.893,0.0
51865.0,STARLINK-3503,PAYLOAD,2023-09-20 18:25:41,15.08826084,0.0001343,53.2166,93.5178,99.3832,260.7312,-0.00012631,-2.297e-05,0.0,0 STARLINK-3503,1 51865U 22022P   23263.76783904 -.00002297  00000-0 -12631-3 0  9991,2 51865  53.2166  93.5178 0001343  99.3832 260.7312 15.08826084 87107,6917.923,95.438,540.717,538.859,0.0
51865.0,STARLINK-3503,PAYLOAD,2023-09-20 20:01:04,15.08822784,0.0001293,53.2164,93.2201,90.3748,269.7392,-0.00016571,-2.923e-05,0.0,0 STARLINK-3503,1 51865U 22022P   23263.83408110 -.00002923  00000-0 -16571-3 0  9995,2 51865  53.2164  93.2201 0001293  90.3748 269.7392 15.08822784 87111,6917.933,95.439,540.693,538.904,0.0
51865.0,STARLINK-3503,PAYLOAD,2023-09-21 13:30:19,15.0883531,0.0001248,53.2161,89.9472,85.1977,274.9158,3.917e-05,3.36e-06,0.0,0 STARLINK-3503,1 51865U 22022P   23264.56272089  .00000336  00000-0  39170-4 0  9995,2 51865  53.2161  89.9472 0001248  85.1977 274.9158 15.08835310 87225,6917.895,95.438,540.623,538.896,0.0
51865.0,STARLINK-3503,PAYLOAD,2023-09-21 16:41:05,15.08840049,0.0001288,53.2164,89.3531,88.2105,271.9034,0.00012899,1.766e-05,0.0,0 STARLINK-3503,1 51865U 22022P   23264.69519926  .00001766  00000-0  12899-3 0  9999,2 51865  53.2164  89.3531 0001288  88.2105 271.9034 15.08840049 87246,6917.88,95.438,540.636,538.854,0.0
51865.0,STARLINK-3503,PAYLOAD,2023-09-22 13:21:05,15.0885394,0.0001328,53.2162,85.4878,89.5066,270.6079,0.00055394,8.542e-05,0.0,0 STARLINK-3503,1 51865U 22022P   23265.55631838  .00008542  00000-0  55394-3 0  9998,2 51865  53.2162  85.4878 0001328  89.5066 270.6079 15.08853940 87373,6917.838,95.437,540.621,538.784,0.0
51865.0,STARLINK-3503,PAYLOAD,2023-09-22 18:07:14,15.08864304,0.0001323,53.2163,84.5959,89.1876,270.9267,0.0007327,0.000114,0.0,0 STARLINK-3503,1 51865U 22022P   23265.75503459  .00011400  00000-0  73270-3 0  9997,2 51865  53.2163  84.5959 0001323  89.1876 270.9267 15.08864304 87406,6917.806,95.436,540.586,538.756,0.0
51865.0,STARLINK-3503,PAYLOAD,2023-09-22 19:42:37,15.088674,0.0001293,53.2161,84.2986,88.8947,271.2193,0.00082144,0.00012819,0.0,0 STARLINK-3503,1 51865U 22022P   23265.82127309  .00012819  00000-0  82144-3 0  9996,2 51865  53.2161  84.2986 0001293  88.8947 271.2193 15.08867400 87415,6917.797,95.436,540.556,538.767,0.0
51865.0,STARLINK-3503,PAYLOAD,2023-09-23 05:14:56,15.08858926,0.000141,53.2166,82.5143,79.7743,280.3408,0.00035057,5.299e-05,0.0,0 STARLINK-3503,1 51865U 22022P   23266.21871118  .00005299  00000-0  35057-3 0  9999,2 51865  53.2166  82.5143 0001410  79.7743 280.3408 15.08858926 87479,6917.823,95.436,540.663,538.712,0.0
51865.0,STARLINK-3503,PAYLOAD,2023-09-23 17:58:01,15.0884637,0.0001397,53.2153,80.1342,89.1426,270.9726,4.2631e-05,3.91e-06,0.0,0 STARLINK-3503,1 51865U 22022P   23266.74863207  .00000391  00000-0  42631-4 0  9992,2 51865  53.2153  80.1342 0001397  89.1426 270.9726 15.08846370 87554,6917.861,95.437,540.692,538.759,0.0
51865.0,STARLINK-3503,PAYLOAD,2023-09-24 11:27:16,15.08843712,0.0001407,53.2151,76.8636,85.9343,274.181,7.4279e-05,8.95e-06,0.0,0 STARLINK-3503,1 51865U 22022P   23267.47727272  .00000895  00000-0  74279-4 0  9996,2 51865  53.2151  76.8636 0001407  85.9343 274.1810 15.08843712 87663,6917.869,95.437,540.707,538.761,0.0
51865.0,STARLINK-3503,PAYLOAD,2023-09-24 17:48:48,15.08852074,0.0001403,53.2157,75.6735,88.2674,271.8479,7.5193e-05,9.09e-06,0.0,0 STARLINK-3503,1 51865U 22022P   23267.74222890  .00000909  00000-0  75193-4 0  9994,2 51865  53.2157  75.6735 0001403  88.2674 271.8479 15.08852074 87706,6917.843,95.437,540.679,538.738,0.0
51865.0,STARLINK-3503,PAYLOAD,2023-09-25 11:18:03,15.08840489,0.0001541,53.2155,72.4045,76.467,283.6493,0.00014195,1.972e-05,0.0,0 STARLINK-3503,1 51865U 22022P   23268.47087532  .00001972  00000-0  14195-3 0  9992,2 51865  53.2155  72.4045 0001541  76.4670 283.6493 15.08840489 87817,6917.879,95.438,540.81,538.678,0.0
